[{"OBJECT_NAME":"STARLINK-30223","OBJECT_ID":"2023-119B","EPOCH":"2026-03-09T01:38:18.856320","MEAN_MOTION":15.06195795,"ECCENTRICITY":3.496e-5,"INCLINATION":42.9999,"RA_OF_ASC_NODE":84.8719,"ARG_OF_PERICENTER":174.0802,"MEAN_ANOMALY":186.0046,"EPHEMERIS_TYPE":0,"CLASSIFICATION_TYPE":"U","NORAD_CAT_ID":57603,"ELEMENT_SET_NO":999,"REV_AT_EPOCH":14298,"BSTAR":0.00060034805,"MEAN_MOTION_DOT":8.745e-5,"MEAN_MOTION_DDOT":0},{"OBJECT_NAME":"STUDSAT","OBJECT_ID":"2010-035B","EPOCH":"2026-03-09T18:37:00.077376","MEAN_MOTION":15.04045903,"ECCENTRICITY":0.00117838,"INCLINATION":98.1026,"RA_OF_ASC_NODE":330.9975,"ARG_OF_PERICENTER":15.8359,"MEAN_ANOMALY":344.3232,"EPHEMERIS_TYPE":0,"CLASSIFICATION_TYPE":"U","NORAD_CAT_ID":36796,"ELEMENT_SET_NO":999,"REV_AT_EPOCH":85020,"BSTAR":0.00039642444,"MEAN_MOTION_DOT":5.425e-5,"MEAN_MOTION_DDOT":0}]
